LIZZIESAT-1 (LS-1)      
1 59132U 24043AL  26068.89230471  .00005784  00000+0  22329-3 0  9993
2 59132  97.5461 203.4772 0009923 229.9925 130.0443 15.26635711111780
STARLINK-33565          
1 62288U 24237X   26068.43525124  .00030162  00000+0  11002-2 0  9999
2 62288  43.0014 206.4987 0001019 196.7330 163.3488 15.27606709 71280
